
# Worst residual: 40.92 km
# MJD 58778.000000 (2019 Oct 22  0:00)
2019-040A = NORAD 44432 = Spektr-RG
1 44432U 19040A   19295.49919926  .00000000  00000-0  00000-0 2  6614
2 44432 023.9545 037.5329 2490150 090.9914 268.8210 00.00678589    09

# Worst residual: 43.59 km
# MJD 58779.000000 (2019 Oct 23  0:00)
2019-040A = NORAD 44432 = Spektr-RG
1 44432U 19040A   19296.49919926  .00000000  00000-0  00000-0 2  6615
2 44432 024.2572 037.1658 2351453 091.4384 269.4983 00.00678975    06

# Worst residual: 45.51 km
# MJD 58780.000000 (2019 Oct 24  0:00)
2019-040A = NORAD 44432 = Spektr-RG
1 44432U 19040A   19297.49919926  .00000000  00000-0  00000-0 2  6616
2 44432 024.5701 036.8302 2199838 091.6536 270.2594 00.00678669    01

# Worst residual: 46.42 km
# MJD 58781.000000 (2019 Oct 25  0:00)
2019-040A = NORAD 44432 = Spektr-RG
1 44432U 19040A   19298.49919926  .00000000  00000-0  00000-0 2  6617
2 44432 024.8900 036.5299 2035926 091.4301 271.3244 00.00677096    09

# Worst residual: 46.23 km
# MJD 58782.000000 (2019 Oct 26  0:00)
2019-040A = NORAD 44432 = Spektr-RG
1 44432U 19040A   19299.49919926  .00000000  00000-0  00000-0 2  6618
2 44432 025.2122 036.2684 1862188 090.5010 272.9811 00.00673756    05

# Worst residual: 44.87 km
# MJD 58783.000000 (2019 Oct 27  0:00)
2019-040A = NORAD 44432 = Spektr-RG
1 44432U 19040A   19300.49919926  .00000000  00000-0  00000-0 2  6611
2 44432 025.5313 036.0481 1683483 088.5346 275.5882 00.00668314    02

# Worst residual: 42.41 km
# MJD 58784.000000 (2019 Oct 28  0:00)
2019-040A = NORAD 44432 = Spektr-RG
1 44432U 19040A   19301.49919926  .00000000  00000-0  00000-0 2  6612
2 44432 025.8418 035.8696 1507452 085.1396 279.5675 00.00660670    06

# Worst residual: 39.15 km
# MJD 58785.000000 (2019 Oct 29  0:00)
2019-040A = NORAD 44432 = Spektr-RG
1 44432U 19040A   19302.49919926  .00000000  00000-0  00000-0 2  6613
2 44432 026.1392 035.7317 1344615 079.9020 285.3617 00.00650977    05

# Worst residual: 36.10 km
# MJD 58786.000000 (2019 Oct 30  0:00)
2019-040A = NORAD 44432 = Spektr-RG
1 44432U 19040A   19303.49919926  .00000000  00000-0  00000-0 2  6614
2 44432 026.4203 035.6315 1207859 072.5055 293.3112 00.00639602    02

# Worst residual: 36.12 km
# MJD 58787.000000 (2019 Oct 31  0:00)
2019-040A = NORAD 44432 = Spektr-RG
1 44432U 19040A   19304.49919926  .00000000  00000-0  00000-0 2  6615
2 44432 026.6837 035.5649 1110611 062.9842 303.3985 00.00627041    06

# Worst residual: 36.18 km
# MJD 58788.000000 (2019 Nov  1  0:00)
2019-040A = NORAD 44432 = Spektr-RG
1 44432U 19040A   19305.49919926  .00000000  00000-0  00000-0 2  6616
2 44432 026.9292 035.5277 1062936 052.0120 314.9594 00.00613829    09

# Worst residual: 35.21 km
# MJD 58789.000000 (2019 Nov  2  0:00)
2019-040A = NORAD 44432 = Spektr-RG
1 44432U 19040A   19306.49919926  .00000000  00000-0  00000-0 2  6617
2 44432 027.1578 035.5158 1066670 040.8412 326.7462 00.00600481    00

# Worst residual: 33.75 km
# MJD 58790.000000 (2019 Nov  3  0:00)
2019-040A = NORAD 44432 = Spektr-RG
1 44432U 19040A   19307.49919926  .00000000  00000-0  00000-0 2  6618
2 44432 027.3710 035.5257 1114001 030.6995 337.5325 00.00587443    05

# Worst residual: 31.92 km
# MJD 58791.000000 (2019 Nov  4  0:00)
2019-040A = NORAD 44432 = Spektr-RG
1 44432U 19040A   19308.49919926  .00000000  00000-0  00000-0 2  6619
2 44432 027.5705 035.5544 1191385 022.2216 346.6837 00.00575092    09

# Worst residual: 29.82 km
# MJD 58792.000000 (2019 Nov  5  0:00)
2019-040A = NORAD 44432 = Spektr-RG
1 44432U 19040A   19309.49919926  .00000000  00000-0  00000-0 2  6610
2 44432 027.7582 035.5996 1284912 015.4377 354.1700 00.00563743    09

# Worst residual: 27.51 km
# MJD 58793.000000 (2019 Nov  6  0:00)
2019-040A = NORAD 44432 = Spektr-RG
1 44432U 19040A   19310.49919926  .00000000  00000-0  00000-0 2  6612
2 44432 027.9360 035.6598 1383186 010.0702 000.2698 00.00553659    00

# Worst residual: 25.03 km
# MJD 58794.000000 (2019 Nov  7  0:00)
2019-040A = NORAD 44432 = Spektr-RG
1 44432U 19040A   19311.49919926  .00000000  00000-0  00000-0 2  6613
2 44432 028.1055 035.7338 1477758 005.7713 005.3328 00.00545067    09

# Worst residual: 22.45 km
# MJD 58795.000000 (2019 Nov  8  0:00)
2019-040A = NORAD 44432 = Spektr-RG
1 44432U 19040A   19312.49919926  .00000000  00000-0  00000-0 2  6614
2 44432 028.2686 035.8211 1562586 002.2236 009.6791 00.00538174    09

# Worst residual: 19.83 km
# MJD 58796.000000 (2019 Nov  9  0:00)
2019-040A = NORAD 44432 = Spektr-RG
1 44432U 19040A   19313.49919926  .00000000  00000-0  00000-0 2  6615
2 44432 028.4270 035.9216 1633449 359.1604 013.5775 00.00533164    06

# Worst residual: 17.26 km
# MJD 58797.000000 (2019 Nov 10  0:00)
2019-040A = NORAD 44432 = Spektr-RG
1 44432U 19040A   19314.49919926  .00000000  00000-0  00000-0 2  6616
2 44432 028.5823 036.0359 1687607 356.3564 017.2546 00.00530201    06
